{"type": "FeatureCollection", "features": [{"type": "Feature", "properties": {"name": "Agege", "centroid": [3.3054, 6.6407], "area_km2": 14.1}, "geometry": {"type": "Polygon", "coordinates": [[[3.301352979000114, 6.620390892000103], [3.29264903100011, 6.624775887000112], [3.289520025, 6.631052972000134], [3.286653042000012, 6.653451919000076], [3.289611101000105, 6.672671795000156], [3.317653895000092, 6.644631863000029], [3.323168994000127, 6.643384934000153], [3.332283973000187, 6.648791790000075], [3.328931094000154, 6.643056869000077], [3.325113057000181, 6.621002198000042], [3.301352979000114, 6.620390892000103]]]}}, {"type": "Feature", "properties": {"name": "Ajeromi-Ifelodun", "centroid": [3.3243, 6.4662], "area_km2": 9.9}, "geometry": {"type": "Polygon", "coordinates": [[[3.322557925000126, 6.446716786000081], [3.312277078000079, 6.45485782600008], [3.306322097000077, 6.47177982300019], [3.307024002000105, 6.477795125000171], [3.314331055000139, 6.482010841999966], [3.322423934000142, 6.483257771000069], [3.338913917000184, 6.475834846000055], [3.344822883000063, 6.45615005600007], [3.331623077000188, 6.452916145000074], [3.322557925000126, 6.446716786000081]]]}}, {"type": "Feature", "properties": {"name": "Alimosho", "centroid": [3.2458, 6.5982], "area_km2": 126.2}, "geometry": {"type": "Polygon", "coordinates": [[[3.289611101000105, 6.672671795000156], [3.286653042000012, 6.653451919000076], [3.289520025, 6.631052972000134], [3.29264903100011, 6.624775887000112], [3.301352979000114, 6.620390892000103], [3.288515090000089, 6.597428799000113], [3.288831950000031, 6.585453987000164], [3.278263092000032, 6.576863765000098], [3.275122880000083, 6.525302887000066], [3.261933089000081, 6.522761822000064], [3.243746042000112, 6.52514410100008], [3.213515998000162, 6.524503231000153], [3.186444044000041, 6.549664975000155], [3.190009117000045, 6.560149194000132], [3.190577983000026, 6.581132890000106], [3.195291996000094, 6.601354123000021], [3.216515064000134, 6.61460495099999], [3.228013040000064, 6.626173020000124], [3.231782914000064, 6.645256997000047], [3.230501891000017, 6.666041851000102], [3.251667976000135, 6.705109119000099], [3.263617993000025, 6.684024811000143], [3.274327040000173, 6.675780773000156], [3.289611101000105, 6.672671795000156]]]}}, {"type": "Feature", "properties": {"name": "Amuwo-Odofin", "centroid": [3.2642, 6.4556], "area_km2": 148.4}, "geometry": {"type": "Polygon", "coordinates": [[[3.307024002000105, 6.477795125000171], [3.30893611900018, 6.462287903000117], [3.312277078000079, 6.45485782600008], [3.324338913000076, 6.444745064000188], [3.330858946000149, 6.41998004900006], [3.334343909999973, 6.421532154000147], [3.341923952000116, 6.419562817000156], [3.351659059000099, 6.422390939000024], [3.360846042000048, 6.419933796000066], [3.368520021000052, 6.409433842000112], [3.369194031000063, 6.39874982900011], [3.301250934000109, 6.405694009000172], [3.29735994400005, 6.404027939000173], [3.185431957000048, 6.403749943000093], [3.184586048000142, 6.433057786000063], [3.186572075000072, 6.441780090000179], [3.190107106000085, 6.446327210000163], [3.204508066000187, 6.45253515200011], [3.210593939000091, 6.457962036000083], [3.220480919000124, 6.512864113000091], [3.215816976000099, 6.523575783000126], [3.243746042000112, 6.52514410100008], [3.261933089000081, 6.522761822000064], [3.273267985000189, 6.524641990000021], [3.283822060000091, 6.521236896000175], [3.311448097000152, 6.528478145000065], [3.307960986000012, 6.515991210000095], [3.31179404300002, 6.496339799000111], [3.307024002000105, 6.477795125000171]]]}}, {"type": "Feature", "properties": {"name": "Apapa", "centroid": [3.3622, 6.4386], "area_km2": 35.5}, "geometry": {"type": "Polygon", "coordinates": [[[3.322557925000126, 6.446716786000081], [3.331623077000188, 6.452916145000074], [3.344822883000063, 6.45615005600007], [3.338913917000184, 6.475834846000055], [3.344582080000123, 6.484035015000075], [3.358315945000072, 6.47734785199998], [3.372301101000062, 6.457756996000171], [3.381894111000122, 6.45183277100017], [3.392204046000074, 6.447512151000069], [3.404932975000179, 6.447135926000101], [3.394360065000058, 6.438259125000059], [3.389214039000024, 6.4194512360001], [3.389727115000028, 6.408383847000152], [3.399306059000025, 6.392083169000045], [3.394583940000189, 6.396249770999987], [3.369194031000063, 6.39874982900011], [3.368520021000052, 6.409433842000112], [3.359242917000188, 6.420651913000029], [3.351659059000099, 6.422390939000024], [3.341923952000116, 6.419562817000156], [3.334343909999973, 6.421532154000147], [3.330858946000149, 6.41998004900006], [3.325896979000163, 6.441263198000058], [3.322557925000126, 6.446716786000081]]]}}, {"type": "Feature", "properties": {"name": "Badagry", "centroid": [2.9123, 6.4492], "area_km2": 421.7}, "geometry": {"type": "Polygon", "coordinates": [[[2.709382057000084, 6.375693798000157], [2.70627999400017, 6.42560482000016], [2.710711002000153, 6.452599049000128], [2.717854024000189, 6.473495961000083], [2.738070011000161, 6.467037201000153], [2.773961068000176, 6.473576070000036], [2.793128967000143, 6.47394085000019], [2.805021048000071, 6.466818811000053], [2.813069106000171, 6.464836121000133], [2.814186096000071, 6.462509156000067], [2.824528933000067, 6.459564209000177], [2.83361101100013, 6.464485169000056], [2.852819919000183, 6.481691838000074], [2.880342006000149, 6.498985768000125], [2.881931067000096, 6.511647224000058], [2.879555941000035, 6.52183914200009], [2.880300999000042, 6.525054932000046], [2.883550883000169, 6.526154041000154], [2.921143055000186, 6.523666860000162], [2.944375039000022, 6.518195153000136], [2.955749989000083, 6.52215385400018], [2.980633020000027, 6.518962859000055], [2.991512060000048, 6.520621777000144], [3.034415960000103, 6.518274784000027], [3.080435037000029, 6.522796154000048], [3.092705012000124, 6.514338970000153], [3.103519916000039, 6.498486995000121], [3.103195906000053, 6.492730140000162], [3.085028887000135, 6.481978894000179], [3.081245900000056, 6.476282119000189], [3.081151963000025, 6.470523834000062], [3.090362072000062, 6.440875053000184], [3.090384961000098, 6.427970886000139], [3.06857800400013, 6.420506953000142], [3.062005043000113, 6.413473129000067], [3.054857969000125, 6.39958381800011], [2.837637902000154, 6.391805173000137], [2.712083101000076, 6.37541580300018], [2.709382057000084, 6.375693798000157]]]}}, {"type": "Feature", "properties": {"name": "Epe", "centroid": [3.9494, 6.5624], "area_km2": 1025.0}, "geometry": {"type": "Polygon", "coordinates": [[[4.342410087000076, 6.373194218000094], [4.302083015000107, 6.379581928000164], [4.243769170000064, 6.384028911000144], [4.214938001000121, 6.411686], [4.205793999000093, 6.41690999900004], [4.193367999000088, 6.419875001000094], [4.188386, 6.424579001000097], [4.158288002000063, 6.417715072000135], [4.150128842000186, 6.426839830000176], [4.143488883000089, 6.429948808], [4.12919200000016, 6.43019100000015], [4.099494934000063, 6.419864178000125], [4.075944901000071, 6.43270397200007], [4.06208086100014, 6.431327820000092], [4.054607969000187, 6.439977017000103], [4.041381835999971, 6.449419976000115], [4.035162000000128, 6.464270000000113], [4.026716000000135, 6.469712999000024], [3.998014927000156, 6.478035927000178], [3.994142049000118, 6.481094902000052], [3.991292954000016, 6.490359784000134], [3.984018088000141, 6.49693679700016], [3.967628955000066, 6.496290207000129], [3.964441067000109, 6.498880903000043], [3.965210914000124, 6.503705979000131], [3.947390079000058, 6.500089170000081], [3.909486056000105, 6.509949207000147], [3.90635204400013, 6.515762807000101], [3.893383979000021, 6.527044773000114], [3.887337000000173, 6.538206001000049], [3.873790025000062, 6.542120934000081], [3.863981, 6.548970001000043], [3.845606090000047, 6.55388784400003], [3.807564974, 6.55522584900018], [3.727996076000181, 6.513484010000127], [3.722706079000091, 6.514495850000174], [3.66540694300005, 6.494729041000085], [3.658034085, 6.495315076000168], [3.655093908000026, 6.49881982800008], [3.645168065000064, 6.498528004000093], [3.633940936000045, 6.489039897000112], [3.62061691200006, 6.492493154000101], [3.609927893000133, 6.487604142000066], [3.606482029000176, 6.488584041000024], [3.606333970000094, 6.493655206000142], [3.616489886000181, 6.508230209000033], [3.614734889000147, 6.513789177000092], [3.607650995000085, 6.518057824000039], [3.630470038000112, 6.559607029000119], [3.661628009000026, 6.589035035000165], [3.687773944000185, 6.608174802000065], [3.68195295400011, 6.633390904000123], [3.678328991000058, 6.637598991000061], [3.67277693800014, 6.636540889000116], [3.671050072000071, 6.643943786000023], [3.67592692400018, 6.660221101000104], [3.698661089000097, 6.689045907000093], [4.074656963000109, 6.684641838000118], [4.085464954000031, 6.681921005000163], [4.091807842000151, 6.674429894000014], [4.094236850000186, 6.667469025000059], [4.079111099000045, 6.645808221000038], [4.063523769000142, 6.638463021000121], [4.050084114000072, 6.620926857000143], [4.046372890000157, 6.6057639120001], [4.050561904000176, 6.593465805000108], [4.054914951000171, 6.59131622200016], [4.058057785000187, 6.585725785000079], [4.058833122000124, 6.562180042000136], [4.076303005000057, 6.557498932000044], [4.083746909000126, 6.546528816000091], [4.094102859000031, 6.544507026000133], [4.107625008000014, 6.552581787000065], [4.131042957999966, 6.573178768000162], [4.146152020000102, 6.579378128000087], [4.172342778000143, 6.585853101000168], [4.201899053000034, 6.586041928000043], [4.219062804999965, 6.56221580600004], [4.220890998000186, 6.546730043000139], [4.211003780000112, 6.534901141000034], [4.202839852000182, 6.529734134000137], [4.157709122000142, 6.508587838000039], [4.151342869000132, 6.500391961000048], [4.148664951000114, 6.491899968000041], [4.152177811000115, 6.480536938000057], [4.166992187, 6.468519211000057], [4.211812973000178, 6.456217766000179], [4.22036504800019, 6.442461014], [4.229941845000042, 6.434916973000156], [4.239369869000143, 6.432679175999965], [4.257531167000025, 6.442059993000157], [4.284488201000045, 6.438601016000064], [4.292488097999978, 6.433620930000075], [4.328333855000153, 6.437393189000034], [4.342555999000069, 6.431612969000128], [4.347043992000067, 6.423462869000105], [4.348236085000053, 6.411445141000172], [4.34691381500005, 6.401085853000097], [4.343101025000067, 6.393767833000027], [4.342410087000076, 6.373194218000094]]]}}, {"type": "Feature", "properties": {"name": "Eti-Osa", "centroid": [3.5381, 6.4566], "area_km2": 154.7}, "geometry": {"type": "Polygon", "coordinates": [[[3.39570999100016, 6.397362233000024], [3.389070987000139, 6.410698891000038], [3.389214039000024, 6.4194512360001], [3.394360065000058, 6.438259125000059], [3.413053988, 6.452919960000145], [3.420345067000142, 6.475837231000128], [3.43070101800015, 6.474279881000086], [3.448141097000132, 6.454400064000026], [3.454627991000052, 6.456133843000032], [3.461508036000055, 6.467766763000157], [3.465451001000076, 6.469083787000045], [3.475280999, 6.463615895000032], [3.486556053000186, 6.461813926000104], [3.494424104000018, 6.46329307600007], [3.498243093000099, 6.471292018000042], [3.501734971000189, 6.473307132000173], [3.519706011000153, 6.471852779000187], [3.527959108000061, 6.468715192000161], [3.561984062000136, 6.49002885800013], [3.567620039000076, 6.496152878000032], [3.57513499300012, 6.518607140000029], [3.578644038000164, 6.52177476900016], [3.597156048000102, 6.525147914000115], [3.607742071000132, 6.523587226000132], [3.610013962000096, 6.521474839000064], [3.607650995000085, 6.518057824000039], [3.614734889000147, 6.513789177000092], [3.616489886000181, 6.508230209000033], [3.606333970000094, 6.493655206000142], [3.606482029000176, 6.488584041000024], [3.609927893000133, 6.487604142000066], [3.62061691200006, 6.492493154000101], [3.633940936000045, 6.489039897000112], [3.645168065000064, 6.498528004000093], [3.65187096600016, 6.499337197000159], [3.662120041000037, 6.49440097199999], [3.665976000000171, 6.487113999000087], [3.668091000000175, 6.475329001000034], [3.647429000000159, 6.467150999000182], [3.639472000000126, 6.460145000000182], [3.636137962000134, 6.453750134000074], [3.629604001000132, 6.449022999000022], [3.61985993400009, 6.424305916000151], [3.512916088000111, 6.421249866000039], [3.415971040000159, 6.422083855000039], [3.40680408500009, 6.417082788000073], [3.402915955000083, 6.405972004000034], [3.403749942000047, 6.395693780000101], [3.402084112000068, 6.399861813000086], [3.39570999100016, 6.397362233000024]]]}}, {"type": "Feature", "properties": {"name": "Ibeju-Lekki", "centroid": [3.8658, 6.4697], "area_km2": 392.5}, "geometry": {"type": "Polygon", "coordinates": [[[3.662120041000037, 6.49440097199999], [3.738214015000153, 6.517689227000176], [3.807564974, 6.55522584900018], [3.845606090000047, 6.55388784400003], [3.863981, 6.548970001000043], [3.873790025000062, 6.542120934000081], [3.887337000000173, 6.538206001000049], [3.893383979000021, 6.527044773000114], [3.90635204400013, 6.515762807000101], [3.909486056000105, 6.509949207000147], [3.947390079000058, 6.500089170000081], [3.965210914000124, 6.503705979000131], [3.964441067000109, 6.498880903000043], [3.967628955000066, 6.496290207000129], [3.984018088000141, 6.49693679700016], [3.991292954000016, 6.490359784000134], [3.994142049000118, 6.481094902000052], [3.998014927000156, 6.478035927000178], [4.026716000000135, 6.469712999000024], [4.035162000000128, 6.464270000000113], [4.041381835999971, 6.449419976000115], [4.054607969000187, 6.439977017000103], [4.06208086100014, 6.431327820000092], [4.075944901000071, 6.43270397200007], [4.099494934000063, 6.419864178000125], [4.12919200000016, 6.43019100000015], [4.143488883000089, 6.429948808], [4.150128842000186, 6.426839830000176], [4.158288002000063, 6.417715072000135], [4.188386, 6.424579001000097], [4.193367999000088, 6.419875001000094], [4.205793999000093, 6.41690999900004], [4.214938001000121, 6.411686], [4.243504998000049, 6.384334017000128], [4.155138001000125, 6.397916001000056], [4.153194, 6.402638], [4.151250001000108, 6.39875], [3.988750000000152, 6.428194001000065], [3.913194001000022, 6.436805000000106], [3.802916000000153, 6.439582999000038], [3.712916999000129, 6.42736], [3.621262063000017, 6.424862000000132], [3.629604001000132, 6.449022999000022], [3.636137962000134, 6.453750134000074], [3.639472000000126, 6.460145000000182], [3.647429000000159, 6.467150999000182], [3.668091000000175, 6.475329001000034], [3.665976000000171, 6.487113999000087], [3.662120041000037, 6.49440097199999]]]}}, {"type": "Feature", "properties": {"name": "Ifako-Ijaiye", "centroid": [3.304, 6.6773], "area_km2": 28.7}, "geometry": {"type": "Polygon", "coordinates": [[[3.332283973000187, 6.648791790000075], [3.323168994000127, 6.643384934000153], [3.317653895000092, 6.644631863000029], [3.289047957000037, 6.673225880000075], [3.274327040000173, 6.675780773000156], [3.263617993000025, 6.684024811000143], [3.251667976000135, 6.705109119000099], [3.252394915000139, 6.706501962000175], [3.267870903000016, 6.70693016000007], [3.293591023000033, 6.698417186000029], [3.337383985000088, 6.679446220000159], [3.353823900000066, 6.669194222000101], [3.332283973000187, 6.648791790000075]]]}}, {"type": "Feature", "properties": {"name": "Ikeja", "centroid": [3.3356, 6.6191], "area_km2": 39.0}, "geometry": {"type": "Polygon", "coordinates": [[[3.301352979000114, 6.620390892000103], [3.325113057000181, 6.621002198000042], [3.331082105, 6.647628784000119], [3.353823900000066, 6.669194222000101], [3.368057012000179, 6.648700238000117], [3.371998072000167, 6.624354839999967], [3.36529493300003, 6.609261990000164], [3.339606047000075, 6.588723183000127], [3.335572005000074, 6.59732198800009], [3.33394694399999, 6.596659183000043], [3.327310085000022, 6.585710049000056], [3.318662882000183, 6.578714847000185], [3.315444947000117, 6.579460144000109], [3.307553052, 6.590654851000068], [3.288831950000031, 6.585453987000164], [3.288515090000089, 6.597428799000113], [3.301352979000114, 6.620390892000103]]]}}, {"type": "Feature", "properties": {"name": "Ikorodu", "centroid": [3.5585, 6.6262], "area_km2": 315.1}, "geometry": {"type": "Polygon", "coordinates": [[[3.698661089000097, 6.689045907000093], [3.67592692400018, 6.660221101000104], [3.671830892000173, 6.649462224000104], [3.67277693800014, 6.636540889000116], [3.678328991000058, 6.637598991000061], [3.683491946000117, 6.628756047000081], [3.687773944000185, 6.608174802000065], [3.686121941000181, 6.605900765000115], [3.661628009000026, 6.589035035000165], [3.629493953000065, 6.558395862], [3.599108934000185, 6.57465600900008], [3.585956098000111, 6.574417115000188], [3.568219899000155, 6.561814785000024], [3.556482077000112, 6.549108982000064], [3.529799939000043, 6.539652824000143], [3.513674973000093, 6.541077138000048], [3.505546092000145, 6.537758828000108], [3.492955922000078, 6.54373312000007], [3.481179953000151, 6.5430102360001], [3.474387885, 6.550960064000094], [3.467060088999972, 6.554309846000137], [3.462774992999982, 6.560375215000079], [3.461546898000108, 6.570073127000114], [3.472048998000048, 6.606070996000085], [3.470700025000042, 6.608168125000134], [3.457587957000158, 6.610461235000173], [3.448460102000126, 6.616608143000178], [3.433146954000051, 6.639679909000108], [3.43208003, 6.64849805900019], [3.443592072000058, 6.651104927000063], [3.436568022000131, 6.659300805000157], [3.434190989000172, 6.669490815000188], [3.435427904000107, 6.674545765000119], [3.456240891999983, 6.691030980000164], [3.698661089000097, 6.689045907000093]]]}}, {"type": "Feature", "properties": {"name": "Kosofe", "centroid": [3.401, 6.607], "area_km2": 63.2}, "geometry": {"type": "Polygon", "coordinates": [[[3.339606047000075, 6.588723183000127], [3.348907947000043, 6.594562054000164], [3.367662906000078, 6.613139152000144], [3.371998072000167, 6.624354839999967], [3.369064092000031, 6.64472580000006], [3.43208003, 6.64849805900019], [3.436264990999973, 6.632711887000028], [3.444840908000174, 6.621047973000032], [3.454616071000146, 6.612126827000111], [3.462553978000074, 6.609457970000051], [3.446922063000159, 6.592899799000179], [3.429753066000046, 6.586740018000057], [3.428464890000043, 6.578466893000098], [3.421174049000172, 6.569832803000111], [3.41608500500007, 6.568998814000167], [3.405982017000099, 6.571935177000171], [3.400747061000061, 6.576173783000058], [3.387976885000171, 6.571088792000069], [3.364295959000117, 6.57609891900006], [3.345354081000153, 6.57457590000007], [3.342185975000064, 6.578316213000051], [3.339606047000075, 6.588723183000127]]]}}, {"type": "Feature", "properties": {"name": "Lagos Island", "centroid": [3.4823, 6.5186], "area_km2": 203.7}, "geometry": {"type": "Polygon", "coordinates": [[[3.404932975000179, 6.447135926000101], [3.392204046000074, 6.447512151000069], [3.381894111000122, 6.45183277100017], [3.372301101000062, 6.457756996000171], [3.363845110000057, 6.470448971], [3.368156909000049, 6.472572803000048], [3.378514052000128, 6.471018792000166], [3.387574912000048, 6.475011825000081], [3.383327008000094, 6.497663976000183], [3.385042905999967, 6.503855229000067], [3.395420074000072, 6.517967225000064], [3.396734953000077, 6.527852058], [3.391727924000122, 6.535366058000022], [3.402453899000022, 6.553331852000042], [3.40141892500003, 6.560722829000099], [3.395092011000031, 6.568893909000053], [3.389738083000054, 6.5718088160001], [3.400747061000061, 6.576173783000058], [3.405982017000099, 6.571935177000171], [3.41608500500007, 6.568998814000167], [3.421174049000172, 6.569832803000111], [3.428464890000043, 6.578466893000098], [3.429753066000046, 6.586740018000057], [3.446922063000159, 6.592899799000179], [3.462553978000074, 6.609457970000051], [3.470700025000042, 6.608168125000134], [3.472048998000048, 6.606070996000085], [3.470009089000087, 6.594123841000055], [3.461822986000186, 6.57283306100004], [3.462774992999982, 6.560375215000079], [3.481179953000151, 6.5430102360001], [3.492955922000078, 6.54373312000007], [3.505546092000145, 6.537758828000108], [3.513674973000093, 6.541077138000048], [3.518949033000183, 6.539146900000048], [3.536974907000058, 6.541145801000141], [3.556482077000112, 6.549108982000064], [3.568219899000155, 6.561814785000024], [3.585956098000111, 6.574417115000188], [3.595669985000143, 6.57586622299999], [3.629493953000065, 6.558395862], [3.610013962000096, 6.521474839000064], [3.602233886000135, 6.525291921000019], [3.578644038000164, 6.52177476900016], [3.57513499300012, 6.518607140000029], [3.567620039000076, 6.496152878000032], [3.561984062000136, 6.49002885800013], [3.527959108000061, 6.468715192000161], [3.519706011000153, 6.471852779000187], [3.501734971000189, 6.473307132000173], [3.498243093000099, 6.471292018000042], [3.494424104000018, 6.46329307600007], [3.486556053000186, 6.461813926000104], [3.475280999, 6.463615895000032], [3.465451001000076, 6.469083787000045], [3.461508036000055, 6.467766763000157], [3.454627991000052, 6.456133843000032], [3.448141097000132, 6.454400064000026], [3.43070101800015, 6.474279881000086], [3.420345067000142, 6.475837231000128], [3.413053988, 6.452919960000145], [3.404932975000179, 6.447135926000101]]]}}, {"type": "Feature", "properties": {"name": "Lagos Mainland", "centroid": [3.3742, 6.5042], "area_km2": 19.4}, "geometry": {"type": "Polygon", "coordinates": [[[3.363845110000057, 6.470448971], [3.351052045000188, 6.482382775000133], [3.362262963000148, 6.507466793000106], [3.363817931000028, 6.51804018100006], [3.36389994700005, 6.523108959000069], [3.357266904000028, 6.534634114000028], [3.37079596500007, 6.535896778000051], [3.384813070000178, 6.532430173000023], [3.391727924000122, 6.535366058000022], [3.394959928000048, 6.532258987000091], [3.396889926000028, 6.523241042000052], [3.383327008000094, 6.497663976000183], [3.387574912000048, 6.475011825000081], [3.378514052000128, 6.471018792000166], [3.368156909000049, 6.472572803000048], [3.363845110000057, 6.470448971]]]}}, {"type": "Feature", "properties": {"name": "Mushin", "centroid": [3.342, 6.5514], "area_km2": 14.8}, "geometry": {"type": "Polygon", "coordinates": [[[3.344630002000031, 6.574769974000162], [3.360059022000144, 6.576124191000019], [3.361613987999988, 6.567154885000093], [3.357266904000028, 6.534634114000028], [3.311448097000152, 6.528478145000065], [3.321172953000087, 6.5342011460001], [3.330687999000133, 6.56629800800016], [3.344630002000031, 6.574769974000162]]]}}, {"type": "Feature", "properties": {"name": "Ojo", "centroid": [3.1461, 6.4652], "area_km2": 153.6}, "geometry": {"type": "Polygon", "coordinates": [[[3.186444044000041, 6.549664975000155], [3.19735193300005, 6.537679196000113], [3.217185020000159, 6.523057938000022], [3.220480919000124, 6.512864113000091], [3.210593939000091, 6.457962036000083], [3.204508066000187, 6.45253515200011], [3.190107106000085, 6.446327210000163], [3.186572075000072, 6.441780090000179], [3.184586048000142, 6.433057786000063], [3.185431957000048, 6.403749943000093], [3.054857969000125, 6.39958381800011], [3.062005043000113, 6.413473129000067], [3.06857800400013, 6.420506953000142], [3.088051081000117, 6.426397802], [3.091340065000111, 6.43002891500015], [3.081245900000056, 6.476282119000189], [3.085028887000135, 6.481978894000179], [3.103195906000053, 6.492730140000162], [3.103718043000185, 6.496408940000094], [3.09882688600004, 6.507781028000068], [3.082984924000073, 6.52196693500008], [3.14108204900009, 6.518303871000057], [3.165836096000021, 6.521341801000062], [3.180804968000075, 6.533311844000025], [3.186444044000041, 6.549664975000155]]]}}, {"type": "Feature", "properties": {"name": "Oshodi-Isolo", "centroid": [3.3041, 6.5587], "area_km2": 32.9}, "geometry": {"type": "Polygon", "coordinates": [[[3.274561881000125, 6.524405002000094], [3.27747702500011, 6.542544842000154], [3.277482033000183, 6.571347237000055], [3.28015995100003, 6.580057145000183], [3.28600311200006, 6.584797859000048], [3.307553052, 6.590654851000068], [3.315444947000117, 6.579460144000109], [3.318662882000183, 6.578714847000185], [3.327310085000022, 6.585710049000056], [3.335572005000074, 6.59732198800009], [3.344630002000031, 6.574769974000162], [3.333259106000128, 6.568328858000143], [3.32809209900006, 6.562655927000151], [3.321172953000087, 6.5342011460001], [3.311448097000152, 6.528478145000065], [3.283822060000091, 6.521236896000175], [3.274561881000125, 6.524405002000094]]]}}, {"type": "Feature", "properties": {"name": "Shomolu", "centroid": [3.3787, 6.5535], "area_km2": 15.6}, "geometry": {"type": "Polygon", "coordinates": [[[3.360059022000144, 6.576124191000019], [3.378984929000126, 6.571472167000081], [3.389738083000054, 6.5718088160001], [3.39736008599999, 6.566551209000068], [3.40141892500003, 6.560722829000099], [3.402453899000022, 6.553331852000042], [3.393646956000111, 6.536660194000149], [3.384813070000178, 6.532430173000023], [3.37079596500007, 6.535896778000051], [3.357266904000028, 6.534634114000028], [3.361613987999988, 6.567154885000093], [3.360059022000144, 6.576124191000019]]]}}, {"type": "Feature", "properties": {"name": "Surulere", "centroid": [3.3353, 6.5071], "area_km2": 26.2}, "geometry": {"type": "Polygon", "coordinates": [[[3.338913917000184, 6.475834846000055], [3.322423934000142, 6.483257771000069], [3.314331055000139, 6.482010841999966], [3.307024002000105, 6.477795125000171], [3.31179404300002, 6.496339799000111], [3.307960986000012, 6.515991210000095], [3.309710980000034, 6.524487973000134], [3.311448097000152, 6.528478145000065], [3.357266904000028, 6.534634114000028], [3.36389994700005, 6.523108959000069], [3.362262963000148, 6.507466793000106], [3.351052045000188, 6.482382775000133], [3.344582080000123, 6.484035015000075], [3.338913917000184, 6.475834846000055]]]}}]}